{"type": "FeatureCollection", "features": [ {"type": "Feature", "properties": {"norad_id": 39634, "name": "SENTINEL-1A", "group": "resource", "lat": 28.466169800580975, "lon": -7.104484900139525, "alt_km": 693.9353209482788, "timestamp": "2025-12-18T04:58:34.237632+00:00", "meta": {"OBJECT_NAME": "SENTINEL-1A", "OBJECT_ID": "2014-016A", "EPOCH": "2025-12-17T23:54:27.190656", "MEAN_MOTION": 14.59201383, "ECCENTRICITY": 0.00012346, "INCLINATION": 98.1801, "RA_OF_ASC_NODE": 357.1605, "ARG_OF_PERICENTER": 82.0832, "MEAN_ANOMALY": 278.0508, "EPHEMERIS_TYPE": 0, "CLASSIFICATION_TYPE": "U", "NORAD_CAT_ID": 39634, "ELEMENT_SET_NO": 999, "REV_AT_EPOCH": 62359, "BSTAR": 4.4560398e-05, "MEAN_MOTION_DOT": 1.64e-06, "MEAN_MOTION_DDOT": 0}, "tle": {"line1": "1 39634U 14016A   25351.99614804  .00000164  00000+0  44560-4 0  9997", "line2": "2 39634  98.1801 357.1605 0001234  82.0832 278.0508 14.59201383623595"}}, "geometry": {"type": "Point", "coordinates": [-7.104484900139525, 28.466169800580975]}}, {"type": "Feature", "properties": {"norad_id": 39731, "name": "KAZEOSAT 1", "group": "resource", "lat": 26.2402008874219, "lon": 59.84385626612805, "alt_km": 750.4410731131147, "timestamp": "2025-12-18T04:58:34.237642+00:00", "meta": {"OBJECT_NAME": "KAZEOSAT 1", "OBJECT_ID": "2014-024A", "EPOCH": "2025-12-17T22:11:32.966304", "MEAN_MOTION": 14.42065201, "ECCENTRICITY": 0.00011509, "INCLINATION": 98.3433, "RA_OF_ASC_NODE": 63.7159, "ARG_OF_PERICENTER": 96.9695, "MEAN_ANOMALY": 263.1626, "EPHEMERIS_TYPE": 0, "CLASSIFICATION_TYPE": "U", "NORAD_CAT_ID": 39731, "ELEMENT_SET_NO": 999, "REV_AT_EPOCH": 61243, "BSTAR": 5.3129574e-05, "MEAN_MOTION_DOT": 1.32e-06, "MEAN_MOTION_DDOT": 0}, "tle": {"line1": "1 39731U 14024A   25351.92468711  .00000132  00000+0  53130-4 0  9999", "line2": "2 39731  98.3433  63.7159 0001150  96.9695 263.1626 14.42065201612434"}}, "geometry": {"type": "Point", "coordinates": [59.84385626612805, 26.2402008874219]}}, {"type": "Feature", "properties": {"norad_id": 39766, "name": "ALOS-2", "group": "resource", "lat": -72.42047070963919, "lon": 113.04957548253415, "alt_km": 639.2189850501536, "timestamp": "2025-12-18T04:58:34.237652+00:00", "meta": {"OBJECT_NAME": "ALOS-2", "OBJECT_ID": "2014-029A", "EPOCH": "2025-12-17T22:49:07.302144", "MEAN_MOTION": 14.79473076, "ECCENTRICITY": 0.00013423, "INCLINATION": 97.9225, "RA_OF_ASC_NODE": 86.7226, "ARG_OF_PERICENTER": 97.2278, "MEAN_ANOMALY": 262.9086, "EPHEMERIS_TYPE": 0, "CLASSIFICATION_TYPE": "U", "NORAD_CAT_ID": 39766, "ELEMENT_SET_NO": 999, "REV_AT_EPOCH": 62478, "BSTAR": 0.00016216806, "MEAN_MOTION_DOT": 1.16e-05, "MEAN_MOTION_DDOT": 0}, "tle": {"line1": "1 39766U 14029A   25351.95077896  .00001160  00000+0  16217-3 0  9991", "line2": "2 39766  97.9225  86.7226 0001342  97.2278 262.9086 14.79473076624781"}}, "geometry": {"type": "Point", "coordinates": [113.04957548253415, -72.42047070963919]}}, {"type": "Feature", "properties": {"norad_id": 40010, "name": "KAZEOSAT 2", "group": "resource", "lat": -51.46408029532254, "lon": -154.1744561839963, "alt_km": 622.8555874489657, "timestamp": "2025-12-18T04:58:34.237662+00:00", "meta": {"OBJECT_NAME": "KAZEOSAT 2", "OBJECT_ID": "2014-033A", "EPOCH": "2025-12-17T22:44:34.098432", "MEAN_MOTION": 14.85179478, "ECCENTRICITY": 0.00080212, "INCLINATION": 97.5504, "RA_OF_ASC_NODE": 195.993, "ARG_OF_PERICENTER": 188.0703, "MEAN_ANOMALY": 172.0385, "EPHEMERIS_TYPE": 0, "CLASSIFICATION_TYPE": "U", "NORAD_CAT_ID": 40010, "ELEMENT_SET_NO": 999, "REV_AT_EPOCH": 62205, "BSTAR": 0.00014316092, "MEAN_MOTION_DOT": 1.177e-05, "MEAN_MOTION_DDOT": 0}, "tle": {"line1": "1 40010U 14033A   25351.94761688  .00001177  00000+0  14316-3 0  9994", "line2": "2 40010  97.5504 195.9930 0008021 188.0703 172.0385 14.85179478622056"}}, "geometry": {"type": "Point", "coordinates": [-154.1744561839963, -51.46408029532254]}}, {"type": "Feature", "properties": {"norad_id": 40011, "name": "HODOYOSHI-4", "group": "resource", "lat": 78.24860515804255, "lon": 141.2677420291559, "alt_km": 601.6287458777279, "timestamp": "2025-12-18T04:58:34.237673+00:00", "meta": {"OBJECT_NAME": "HODOYOSHI-4", "OBJECT_ID": "2014-033B", "EPOCH": "2025-12-17T23:46:08.300640", "MEAN_MOTION": 14.87499448, "ECCENTRICITY": 0.00234898, "INCLINATION": 97.541, "RA_OF_ASC_NODE": 180.615, "ARG_OF_PERICENTER": 183.0039, "MEAN_ANOMALY": 177.1041, "EPHEMERIS_TYPE": 0, "CLASSIFICATION_TYPE": "U", "NORAD_CAT_ID": 40011, "ELEMENT_SET_NO": 999, "REV_AT_EPOCH": 62186, "BSTAR": 0.00011722353, "MEAN_MOTION_DOT": 1.016e-05, "MEAN_MOTION_DDOT": 0}, "tle": {"line1": "1 40011U 14033B   25351.99037385  .00001016  00000+0  11722-3 0  9990", "line2": "2 40011  97.5410 180.6150 0023489 183.0039 177.1041 14.87499448621867"}}, "geometry": {"type": "Point", "coordinates": [141.2677420291559, 78.24860515804255]}}, {"type": "Feature", "properties": {"norad_id": 40013, "name": "DEIMOS-2", "group": "resource", "lat": -13.56454305831505, "lon": -130.3258535739467, "alt_km": 593.6566337382383, "timestamp": "2025-12-18T04:58:34.237683+00:00", "meta": {"OBJECT_NAME": "DEIMOS-2", "OBJECT_ID": "2014-033D", "EPOCH": "2025-12-17T22:36:11.958048", "MEAN_MOTION": 14.92994863, "ECCENTRICITY": 0.00011989, "INCLINATION": 97.6064, "RA_OF_ASC_NODE": 227.5698, "ARG_OF_PERICENTER": 108.1354, "MEAN_ANOMALY": 251.9997, "EPHEMERIS_TYPE": 0, "CLASSIFICATION_TYPE": "U", "NORAD_CAT_ID": 40013, "ELEMENT_SET_NO": 999, "REV_AT_EPOCH": 61067, "BSTAR": 0.00021540314, "MEAN_MOTION_DOT": 2.184e-05, "MEAN_MOTION_DDOT": 0}, "tle": {"line1": "1 40013U 14033D   25351.94180507  .00002184  00000+0  21540-3 0  9998", "line2": "2 40013  97.6064 227.5698 0001198 108.1354 251.9997 14.92994863610679"}}, "geometry": {"type": "Point", "coordinates": [-130.3258535739467, -13.56454305831505]}}, {"type": "Feature", "properties": {"norad_id": 40015, "name": "HODOYOSHI-3", "group": "resource", "lat": -45.13221658616075, "lon": 165.53408466542734, "alt_km": 618.923742449273, "timestamp": "2025-12-18T04:58:34.237693+00:00", "meta": {"OBJECT_NAME": "HODOYOSHI-3", "OBJECT_ID": "2014-033F", "EPOCH": "2025-12-17T19:28:39.610848", "MEAN_MOTION": 14.84824142, "ECCENTRICITY": 0.00320942, "INCLINATION": 97.6202, "RA_OF_ASC_NODE": 157.4261, "ARG_OF_PERICENTER": 230.602, "MEAN_ANOMALY": 129.2353, "EPHEMERIS_TYPE": 0, "CLASSIFICATION_TYPE": "U", "NORAD_CAT_ID": 40015, "ELEMENT_SET_NO": 999, "REV_AT_EPOCH": 62070, "BSTAR": 0.00017047758, "MEAN_MOTION_DOT": 1.408e-05, "MEAN_MOTION_DDOT": 0}, "tle": {"line1": "1 40015U 14033F   25351.81156957  .00001408  00000+0  17048-3 0  9994", "line2": "2 40015  97.6202 157.4261 0032094 230.6020 129.2353 14.84824142620703"}}, "geometry": {"type": "Point", "coordinates": [165.53408466542734, -45.13221658616075]}}, {"type": "Feature", "properties": {"norad_id": 40053, "name": "SPOT 7", "group": "resource", "lat": -74.12518489630858, "lon": 84.17022879191474, "alt_km": 699.1216398717343, "timestamp": "2025-12-18T04:58:34.237704+00:00", "meta": {"OBJECT_NAME": "SPOT 7", "OBJECT_ID": "2014-034A", "EPOCH": "2025-12-17T22:44:56.891616", "MEAN_MOTION": 14.60740173, "ECCENTRICITY": 0.00015487, "INCLINATION": 98.0906, "RA_OF_ASC_NODE": 53.9036, "ARG_OF_PERICENTER": 84.1615, "MEAN_ANOMALY": 275.9762, "EPHEMERIS_TYPE": 0, "CLASSIFICATION_TYPE": "U", "NORAD_CAT_ID": 40053, "ELEMENT_SET_NO": 999, "REV_AT_EPOCH": 61067, "BSTAR": 8.7836429e-05, "MEAN_MOTION_DOT": 3.83e-06, "MEAN_MOTION_DDOT": 0}, "tle": {"line1": "1 40053U 14034A   25351.94788069  .00000383  00000+0  87836-4 0  9990", "line2": "2 40053  98.0906  53.9036 0001548  84.1615 275.9762 14.60740173610676"}}, "geometry": {"type": "Point", "coordinates": [84.17022879191474, -74.12518489630858]}}, {"type": "Feature", "properties": {"norad_id": 40072, "name": "SKYSAT-B", "group": "resource", "lat": 21.290070728942226, "lon": -67.08365846571135, "alt_km": 607.852395773968, "timestamp": "2025-12-18T04:58:34.237714+00:00", "meta": {"OBJECT_NAME": "SKYSAT-B", "OBJECT_ID": "2014-037D", "EPOCH": "2025-12-17T17:34:38.874432", "MEAN_MOTION": 14.87344985, "ECCENTRICITY": 0.00064543, "INCLINATION": 98.3617, "RA_OF_ASC_NODE": 295.7021, "ARG_OF_PERICENTER": 135.8528, "MEAN_ANOMALY": 224.3203, "EPHEMERIS_TYPE": 0, "CLASSIFICATION_TYPE": "U", "NORAD_CAT_ID": 40072, "ELEMENT_SET_NO": 999, "REV_AT_EPOCH": 61898, "BSTAR": 0.0001643046, "MEAN_MOTION_DOT": 1.423e-05, "MEAN_MOTION_DDOT": 0}, "tle": {"line1": "1 40072U 14037D   25351.73239438  .00001423  00000+0  16430-3 0  9999", "line2": "2 40072  98.3617 295.7021 0006454 135.8528 224.3203 14.87344985618987"}}, "geometry": {"type": "Point", "coordinates": [-67.08365846571135, 21.290070728942226]}}, {"type": "Feature", "properties": {"norad_id": 40115, "name": "WORLDVIEW-3 (WV-3)", "group": "resource", "lat": -55.816468995983854, "lon": -127.31875594008851, "alt_km": 617.7296309887961, "timestamp": "2025-12-18T04:58:34.237725+00:00", "meta": {"OBJECT_NAME": "WORLDVIEW-3 (WV-3)", "OBJECT_ID": "2014-048A", "EPOCH": "2025-12-17T19:49:54.747840", "MEAN_MOTION": 14.85524143, "ECCENTRICITY": 0.00051758, "INCLINATION": 97.8612, "RA_OF_ASC_NODE": 64.0426, "ARG_OF_PERICENTER": 168.4648, "MEAN_ANOMALY": 191.6687, "EPHEMERIS_TYPE": 0, "CLASSIFICATION_TYPE": "U", "NORAD_CAT_ID": 40115, "ELEMENT_SET_NO": 999, "REV_AT_EPOCH": 61499, "BSTAR": 0.00011308968, "MEAN_MOTION_DOT": 9.23e-06, "MEAN_MOTION_DDOT": 0}, "tle": {"line1": "1 40115U 14048A   25351.82632810  .00000923  00000+0  11309-3 0  9994", "line2": "2 40115  97.8612  64.0426 0005175 168.4648 191.6687 14.85524143614997"}}, "geometry": {"type": "Point", "coordinates": [-127.31875594008851, -55.816468995983854]}}]}